[{"OBJECT_NAME":"SHIYAN-21 (SY-21)","OBJECT_ID":"2022-172A","EPOCH":"2026-03-09T23:40:42.191616","MEAN_MOTION":15.28197132,"ECCENTRICITY":0.00206059,"INCLINATION":35.9768,"RA_OF_ASC_NODE":332.6944,"ARG_OF_PERICENTER":79.3933,"MEAN_ANOMALY":280.9121,"EPHEMERIS_TYPE":0,"CLASSIFICATION_TYPE":"U","NORAD_CAT_ID":54752,"ELEMENT_SET_NO":999,"REV_AT_EPOCH":18050,"BSTAR":0.00041186164,"MEAN_MOTION_DOT":0.00011616,"MEAN_MOTION_DDOT":0},{"OBJECT_NAME":"STARLINK-34299","OBJECT_ID":"2025-127P","EPOCH":"2026-03-09T15:08:24.267552","MEAN_MOTION":15.27595363,"ECCENTRICITY":0.0001039,"INCLINATION":43.0018,"RA_OF_ASC_NODE":180.5051,"ARG_OF_PERICENTER":257.5852,"MEAN_ANOMALY":102.4884,"EPHEMERIS_TYPE":0,"CLASSIFICATION_TYPE":"U","NORAD_CAT_ID":64383,"ELEMENT_SET_NO":999,"REV_AT_EPOCH":4240,"BSTAR":0.0014171387,"MEAN_MOTION_DOT":0.00038959,"MEAN_MOTION_DDOT":0}]
